CCSDS_OMM_VERS = 2.0
CREATION_DATE  = 
ORIGINATOR     = 

OBJECT_NAME    = COSMOS 1933
OBJECT_ID      = 1988-020A
CENTER_NAME    = EARTH
REF_FRAME      = TEME
TIME_SYSTEM    = UTC
MEAN_ELEMENT_THEORY = SGP/SGP4

EPOCH          = 2026-01-26T04:49:39.849024
MEAN_MOTION    = 15.17592391
ECCENTRICITY   = .00045091
INCLINATION    = 82.5142
RA_OF_ASC_NODE = 292.9408
ARG_OF_PERICENTER = 12.2224
MEAN_ANOMALY   = 347.9118

EPHEMERIS_TYPE = 0
CLASSIFICATION_TYPE = U
NORAD_CAT_ID   = 18958
ELEMENT_SET_NO = 999
REV_AT_EPOCH   = 4378
BSTAR          = .33203374E-3
MEAN_MOTION_DOT = .6702E-4
MEAN_MOTION_DDOT = 0

CCSDS_OMM_VERS = 2.0
CREATION_DATE  = 
ORIGINATOR     = 

OBJECT_NAME    = SL-3 R/B
OBJECT_ID      = 1988-032B
CENTER_NAME    = EARTH
REF_FRAME      = TEME
TIME_SYSTEM    = UTC
MEAN_ELEMENT_THEORY = SGP/SGP4

EPOCH          = 2026-01-26T06:15:40.864032
MEAN_MOTION    = 15.19316826
ECCENTRICITY   = .00272418
INCLINATION    = 97.5133
RA_OF_ASC_NODE = 9.7024
ARG_OF_PERICENTER = 25.9093
MEAN_ANOMALY   = 334.3499

EPHEMERIS_TYPE = 0
CLASSIFICATION_TYPE = U
NORAD_CAT_ID   = 19046
ELEMENT_SET_NO = 999
REV_AT_EPOCH   = 4566
BSTAR          = .380882E-3
MEAN_MOTION_DOT = .8054E-4
MEAN_MOTION_DDOT = 0

CCSDS_OMM_VERS = 2.0
CREATION_DATE  = 
ORIGINATOR     = 

OBJECT_NAME    = SL-16 R/B
OBJECT_ID      = 1988-039B
CENTER_NAME    = EARTH
REF_FRAME      = TEME
TIME_SYSTEM    = UTC
MEAN_ELEMENT_THEORY = SGP/SGP4

EPOCH          = 2026-01-25T12:06:50.727456
MEAN_MOTION    = 14.19608794
ECCENTRICITY   = .00202224
INCLINATION    = 71.0146
RA_OF_ASC_NODE = 159.8619
ARG_OF_PERICENTER = 41.7353
MEAN_ANOMALY   = 318.5311

EPHEMERIS_TYPE = 0
CLASSIFICATION_TYPE = U
NORAD_CAT_ID   = 19120
ELEMENT_SET_NO = 999
REV_AT_EPOCH   = 95225
BSTAR          = .8166611E-5
MEAN_MOTION_DOT = -.31E-6
MEAN_MOTION_DDOT = 0

CCSDS_OMM_VERS = 2.0
CREATION_DATE  = 
ORIGINATOR     = 

OBJECT_NAME    = COSMOS 1953
OBJECT_ID      = 1988-050A
CENTER_NAME    = EARTH
REF_FRAME      = TEME
TIME_SYSTEM    = UTC
MEAN_ELEMENT_THEORY = SGP/SGP4

EPOCH          = 2026-01-25T22:19:36.476256
MEAN_MOTION    = 15.27606895
ECCENTRICITY   = .00104057
INCLINATION    = 82.5076
RA_OF_ASC_NODE = 201.2172
ARG_OF_PERICENTER = 276.1561
MEAN_ANOMALY   = 83.8492

EPHEMERIS_TYPE = 0
CLASSIFICATION_TYPE = U
NORAD_CAT_ID   = 19210
ELEMENT_SET_NO = 999
REV_AT_EPOCH   = 3125
BSTAR          = .43044618E-3
MEAN_MOTION_DOT = .11669E-3
MEAN_MOTION_DDOT = 0

CCSDS_OMM_VERS = 2.0
CREATION_DATE  = 
ORIGINATOR     = 

OBJECT_NAME    = SL-8 R/B
OBJECT_ID      = 1988-053B
CENTER_NAME    = EARTH
REF_FRAME      = TEME
TIME_SYSTEM    = UTC
MEAN_ELEMENT_THEORY = SGP/SGP4

EPOCH          = 2026-01-25T17:59:35.725056
MEAN_MOTION    = 14.38888089
ECCENTRICITY   = .00197731
INCLINATION    = 74.0461
RA_OF_ASC_NODE = 191.6065
ARG_OF_PERICENTER = 20.0251
MEAN_ANOMALY   = 351.5946

EPHEMERIS_TYPE = 0
CLASSIFICATION_TYPE = U
NORAD_CAT_ID   = 19257
ELEMENT_SET_NO = 999
REV_AT_EPOCH   = 97042
BSTAR          = .1422962E-3
MEAN_MOTION_DOT = .413E-5
MEAN_MOTION_DDOT = 0

CCSDS_OMM_VERS = 2.0
CREATION_DATE  = 
ORIGINATOR     = 

OBJECT_NAME    = COSMOS 1975
OBJECT_ID      = 1988-093A
CENTER_NAME    = EARTH
REF_FRAME      = TEME
TIME_SYSTEM    = UTC
MEAN_ELEMENT_THEORY = SGP/SGP4

EPOCH          = 2026-01-25T15:00:27.135648
MEAN_MOTION    = 15.27236580
ECCENTRICITY   = .0010873
INCLINATION    = 82.5216
RA_OF_ASC_NODE = 160.8725
ARG_OF_PERICENTER = 326.7163
MEAN_ANOMALY   = 33.3391

EPHEMERIS_TYPE = 0
CLASSIFICATION_TYPE = U
NORAD_CAT_ID   = 19573
ELEMENT_SET_NO = 999
REV_AT_EPOCH   = 1283
BSTAR          = .46081E-3
MEAN_MOTION_DOT = .12353E-3
MEAN_MOTION_DDOT = 0

CCSDS_OMM_VERS = 2.0
CREATION_DATE  = 
ORIGINATOR     = 

OBJECT_NAME    = SL-14 R/B
OBJECT_ID      = 1988-093B
CENTER_NAME    = EARTH
REF_FRAME      = TEME
TIME_SYSTEM    = UTC
MEAN_ELEMENT_THEORY = SGP/SGP4

EPOCH          = 2026-01-26T03:53:02.353920
MEAN_MOTION    = 14.85608358
ECCENTRICITY   = .00208439
INCLINATION    = 82.5293
RA_OF_ASC_NODE = 81.9775
ARG_OF_PERICENTER = 174.6406
MEAN_ANOMALY   = 243.2918

EPHEMERIS_TYPE = 0
CLASSIFICATION_TYPE = U
NORAD_CAT_ID   = 19574
ELEMENT_SET_NO = 999
REV_AT_EPOCH   = 99472
BSTAR          = .87493889E-4
MEAN_MOTION_DOT = .784E-5
MEAN_MOTION_DDOT = 0

CCSDS_OMM_VERS = 2.0
CREATION_DATE  = 
ORIGINATOR     = 

OBJECT_NAME    = SL-16 R/B
OBJECT_ID      = 1988-102B
CENTER_NAME    = EARTH
REF_FRAME      = TEME
TIME_SYSTEM    = UTC
MEAN_ELEMENT_THEORY = SGP/SGP4

EPOCH          = 2026-01-25T23:00:40.274208
MEAN_MOTION    = 14.16148144
ECCENTRICITY   = .00119458
INCLINATION    = 70.9974
RA_OF_ASC_NODE = 241.4042
ARG_OF_PERICENTER = 72.9942
MEAN_ANOMALY   = 287.2489

EPHEMERIS_TYPE = 0
CLASSIFICATION_TYPE = U
NORAD_CAT_ID   = 19650
ELEMENT_SET_NO = 999
REV_AT_EPOCH   = 92084
BSTAR          = -.3309473E-4
MEAN_MOTION_DOT = -.113E-5
MEAN_MOTION_DDOT = 0

CCSDS_OMM_VERS = 2.0
CREATION_DATE  = 
ORIGINATOR     = 

OBJECT_NAME    = INTERCOSMOS 24
OBJECT_ID      = 1989-080A
CENTER_NAME    = EARTH
REF_FRAME      = TEME
TIME_SYSTEM    = UTC
MEAN_ELEMENT_THEORY = SGP/SGP4

EPOCH          = 2026-01-26T07:24:28.596384
MEAN_MOTION    = 12.59501716
ECCENTRICITY   = .1188738
INCLINATION    = 82.6079
RA_OF_ASC_NODE = 131.9814
ARG_OF_PERICENTER = 31.1932
MEAN_ANOMALY   = 335.4467

EPHEMERIS_TYPE = 0
CLASSIFICATION_TYPE = U
NORAD_CAT_ID   = 20261
ELEMENT_SET_NO = 999
REV_AT_EPOCH   = 66146
BSTAR          = .19097585E-3
MEAN_MOTION_DOT = .67E-5
MEAN_MOTION_DDOT = 0

CCSDS_OMM_VERS = 2.0
CREATION_DATE  = 
ORIGINATOR     = 

OBJECT_NAME    = SL-14 R/B
OBJECT_ID      = 1989-080C
CENTER_NAME    = EARTH
REF_FRAME      = TEME
TIME_SYSTEM    = UTC
MEAN_ELEMENT_THEORY = SGP/SGP4

EPOCH          = 2026-01-26T07:22:43.674816
MEAN_MOTION    = 12.50446687
ECCENTRICITY   = .1229489
INCLINATION    = 82.5924
RA_OF_ASC_NODE = 200.3983
ARG_OF_PERICENTER = 281.6923
MEAN_ANOMALY   = 64.9023

EPHEMERIS_TYPE = 0
CLASSIFICATION_TYPE = U
NORAD_CAT_ID   = 20262
ELEMENT_SET_NO = 999
REV_AT_EPOCH   = 65485
BSTAR          = .12916614E-3
MEAN_MOTION_DOT = .425E-5
MEAN_MOTION_DDOT = 0

CCSDS_OMM_VERS = 2.0
CREATION_DATE  = 
ORIGINATOR     = 

OBJECT_NAME    = DELTA 1 R/B
OBJECT_ID      = 1989-089B
CENTER_NAME    = EARTH
REF_FRAME      = TEME
TIME_SYSTEM    = UTC
MEAN_ELEMENT_THEORY = SGP/SGP4

EPOCH          = 2026-01-26T04:47:54.279456
MEAN_MOTION    = 14.50622335
ECCENTRICITY   = .00675752
INCLINATION    = 97.0732
RA_OF_ASC_NODE = 240.3877
ARG_OF_PERICENTER = 256.7798
MEAN_ANOMALY   = 102.5856

EPHEMERIS_TYPE = 0
CLASSIFICATION_TYPE = U
NORAD_CAT_ID   = 20323
ELEMENT_SET_NO = 999
REV_AT_EPOCH   = 88957
BSTAR          = .1839285E-3
MEAN_MOTION_DOT = .707E-5
MEAN_MOTION_DDOT = 0

CCSDS_OMM_VERS = 2.0
CREATION_DATE  = 
ORIGINATOR     = 

OBJECT_NAME    = ARIANE 40 R/B
OBJECT_ID      = 1990-005H
CENTER_NAME    = EARTH
REF_FRAME      = TEME
TIME_SYSTEM    = UTC
MEAN_ELEMENT_THEORY = SGP/SGP4

EPOCH          = 2026-01-26T03:29:39.300864
MEAN_MOTION    = 14.39839491
ECCENTRICITY   = .00094974
INCLINATION    = 98.3174
RA_OF_ASC_NODE = 88.0551
ARG_OF_PERICENTER = 339.2335
MEAN_ANOMALY   = 20.8467

EPHEMERIS_TYPE = 0
CLASSIFICATION_TYPE = U
NORAD_CAT_ID   = 20443
ELEMENT_SET_NO = 999
REV_AT_EPOCH   = 88668
BSTAR          = .19217264E-3
MEAN_MOTION_DOT = .561E-5
MEAN_MOTION_DDOT = 0

