COSMOS 1933             
1 18958U 88020A   26026.20115566  .00006702  00000+0  33203-3 0  9999
2 18958  82.5142 292.9408 0004509  12.2224 347.9118 15.17592391 43788
SL-3 R/B                
1 19046U 88032B   26026.26088963  .00008054  00000+0  38088-3 0  9995
2 19046  97.5133   9.7024 0027241  25.9093 334.3499 15.19316826 45664
SL-16 R/B               
1 19120U 88039B   26025.50475379 -.00000031  00000+0  81666-5 0  9992
2 19120  71.0146 159.8619 0020222  41.7353 318.5311 14.19608794952258
COSMOS 1953             
1 19210U 88050A   26025.93028329  .00011669  00000+0  43045-3 0  9996
2 19210  82.5076 201.2172 0010405 276.1561  83.8492 15.27606895 31250
SL-8 R/B                
1 19257U 88053B   26025.74971904  .00000413  00000+0  14230-3 0  9994
2 19257  74.0461 191.6065 0019773  20.0251 351.5946 14.38888089970425
COSMOS 1975             
1 19573U 88093A   26025.62531407  .00012353  00000+0  46081-3 0  9991
2 19573  82.5216 160.8725 0010873 326.7163  33.3391 15.27236580 12832
SL-14 R/B               
1 19574U 88093B   26026.16183280  .00000784  00000+0  87494-4 0  9993
2 19574  82.5293  81.9775 0020843 174.6406 243.2918 14.85608358994727
SL-16 R/B               
1 19650U 88102B   26025.95879947 -.00000113  00000+0 -33095-4 0  9993
2 19650  70.9974 241.4042 0011945  72.9942 287.2489 14.16148144920846
INTERCOSMOS 24          
1 20261U 89080A   26026.30866431  .00000670  00000+0  19098-3 0  9995
2 20261  82.6079 131.9814 1188738  31.1932 335.4467 12.59501716661469
SL-14 R/B               
1 20262U 89080C   26026.30744994  .00000425  00000+0  12917-3 0  9996
2 20262  82.5924 200.3983 1229489 281.6923  64.9023 12.50446687654850
DELTA 1 R/B             
1 20323U 89089B   26026.19993379  .00000707  00000+0  18393-3 0  9990
2 20323  97.0732 240.3877 0067575 256.7798 102.5856 14.50622335889570
ARIANE 40 R/B           
1 20443U 90005H   26026.14559376  .00000561  00000+0  19217-3 0  9997
2 20443  98.3174  88.0551 0009497 339.2335  20.8467 14.39839491886685
